[{"OBJECT_NAME":"ONEWEB-0169","OBJECT_ID":"2021-025AM","EPOCH":"2026-01-14T20:07:42.790080","MEAN_MOTION":13.13469062,"ECCENTRICITY":0.0001981,"INCLINATION":87.9001,"RA_OF_ASC_NODE":350.6999,"ARG_OF_PERICENTER":82.8753,"MEAN_ANOMALY":277.2601,"EPHEMERIS_TYPE":0,"CLASSIFICATION_TYPE":"U","NORAD_CAT_ID":48077,"ELEMENT_SET_NO":999,"REV_AT_EPOCH":23217,"BSTAR":0.00090102,"MEAN_MOTION_DOT":3.42e-6,"MEAN_MOTION_DDOT":0},{"OBJECT_NAME":"ONEWEB-0176","OBJECT_ID":"2021-031A","EPOCH":"2026-01-14T19:14:23.429184","MEAN_MOTION":13.14503555,"ECCENTRICITY":0.0001646,"INCLINATION":87.9025,"RA_OF_ASC_NODE":320.2672,"ARG_OF_PERICENTER":78.6208,"MEAN_ANOMALY":281.5107,"EPHEMERIS_TYPE":0,"CLASSIFICATION_TYPE":"U","NORAD_CAT_ID":48210,"ELEMENT_SET_NO":999,"REV_AT_EPOCH":22816,"BSTAR":-0.00045213,"MEAN_MOTION_DOT":-1.55e-6,"MEAN_MOTION_DDOT":0},{"OBJECT_NAME":"ONEWEB-0184","OBJECT_ID":"2021-031B","EPOCH":"2026-01-14T20:25:10.550784","MEAN_MOTION":13.14502685,"ECCENTRICITY":0.0001017,"INCLINATION":87.9037,"RA_OF_ASC_NODE":320.2419,"ARG_OF_PERICENTER":57.1088,"MEAN_ANOMALY":303.0139,"EPHEMERIS_TYPE":0,"CLASSIFICATION_TYPE":"U","NORAD_CAT_ID":48211,"ELEMENT_SET_NO":999,"REV_AT_EPOCH":22814,"BSTAR":-9.632e-5,"MEAN_MOTION_DOT":-2.3e-7,"MEAN_MOTION_DDOT":0},{"OBJECT_NAME":"ONEWEB-0179","OBJECT_ID":"2021-031C","EPOCH":"2026-01-14T19:42:54.290016","MEAN_MOTION":13.14505111,"ECCENTRICITY":0.0001785,"INCLINATION":87.9028,"RA_OF_ASC_NODE":320.2539,"ARG_OF_PERICENTER":86.656,"MEAN_ANOMALY":273.4774,"EPHEMERIS_TYPE":0,"CLASSIFICATION_TYPE":"U","NORAD_CAT_ID":48212,"ELEMENT_SET_NO":999,"REV_AT_EPOCH":22818,"BSTAR":0.00042342,"MEAN_MOTION_DOT":1.7e-6,"MEAN_MOTION_DDOT":0},{"OBJECT_NAME":"ONEWEB-0180","OBJECT_ID":"2021-031D","EPOCH":"2026-01-14T20:29:44.778336","MEAN_MOTION":13.14503088,"ECCENTRICITY":0.0001504,"INCLINATION":87.9036,"RA_OF_ASC_NODE":320.2466,"ARG_OF_PERICENTER":86.4332,"MEAN_ANOMALY":273.6969,"EPHEMERIS_TYPE":0,"CLASSIFICATION_TYPE":"U","NORAD_CAT_ID":48213,"ELEMENT_SET_NO":999,"REV_AT_EPOCH":22807,"BSTAR":-0.00017872,"MEAN_MOTION_DOT":-5.3e-7,"MEAN_MOTION_DDOT":0},{"OBJECT_NAME":"ONEWEB-0218","OBJECT_ID":"2021-031E","EPOCH":"2026-01-14T19:12:04.212864","MEAN_MOTION":13.14500918,"ECCENTRICITY":8.74e-5,"INCLINATION":87.9039,"RA_OF_ASC_NODE":320.2579,"ARG_OF_PERICENTER":74.2094,"MEAN_ANOMALY":285.9132,"EPHEMERIS_TYPE":0,"CLASSIFICATION_TYPE":"U","NORAD_CAT_ID":48214,"ELEMENT_SET_NO":999,"REV_AT_EPOCH":22822,"BSTAR":-0.00045136,"MEAN_MOTION_DOT":-1.55e-6,"MEAN_MOTION_DDOT":0},{"OBJECT_NAME":"ONEWEB-0209","OBJECT_ID":"2021-031F","EPOCH":"2026-01-14T20:45:43.855488","MEAN_MOTION":13.14502722,"ECCENTRICITY":0.0001742,"INCLINATION":87.9019,"RA_OF_ASC_NODE":320.2775,"ARG_OF_PERICENTER":86.141,"MEAN_ANOMALY":273.9918,"EPHEMERIS_TYPE":0,"CLASSIFICATION_TYPE":"U","NORAD_CAT_ID":48215,"ELEMENT_SET_NO":999,"REV_AT_EPOCH":22823,"BSTAR":-0.00059304,"MEAN_MOTION_DOT":-2.07e-6,"MEAN_MOTION_DDOT":0},{"OBJECT_NAME":"ONEWEB-0198","OBJECT_ID":"2021-031G","EPOCH":"2026-01-14T20:23:05.753760","MEAN_MOTION":13.14502376,"ECCENTRICITY":0.0001365,"INCLINATION":87.9024,"RA_OF_ASC_NODE":320.2779,"ARG_OF_PERICENTER":87.7985,"MEAN_ANOMALY":272.3301,"EPHEMERIS_TYPE":0,"CLASSIFICATION_TYPE":"U","NORAD_CAT_ID":48216,"ELEMENT_SET_NO":999,"REV_AT_EPOCH":22834,"BSTAR":2.8738e-5,"MEAN_MOTION_DOT":2.3e-7,"MEAN_MOTION_DDOT":0},{"OBJECT_NAME":"ONEWEB-0189","OBJECT_ID":"2021-031H","EPOCH":"2026-01-14T20:41:09.652128","MEAN_MOTION":13.14502099,"ECCENTRICITY":0.0001408,"INCLINATION":87.9028,"RA_OF_ASC_NODE":320.2506,"ARG_OF_PERICENTER":84.8339,"MEAN_ANOMALY":275.2952,"EPHEMERIS_TYPE":0,"CLASSIFICATION_TYPE":"U","NORAD_CAT_ID":48217,"ELEMENT_SET_NO":999,"REV_AT_EPOCH":22808,"BSTAR":-0.00050497,"MEAN_MOTION_DOT":-1.74e-6,"MEAN_MOTION_DDOT":0},{"OBJECT_NAME":"ONEWEB-0196","OBJECT_ID":"2021-031J","EPOCH":"2026-01-14T20:09:10.382400","MEAN_MOTION":13.14501022,"ECCENTRICITY":0.0001636,"INCLINATION":87.9021,"RA_OF_ASC_NODE":320.2673,"ARG_OF_PERICENTER":80.7409,"MEAN_ANOMALY":279.3906,"EPHEMERIS_TYPE":0,"CLASSIFICATION_TYPE":"U","NORAD_CAT_ID":48218,"ELEMENT_SET_NO":999,"REV_AT_EPOCH":22808,"BSTAR":0.00043932,"MEAN_MOTION_DOT":1.76e-6,"MEAN_MOTION_DDOT":0},{"OBJECT_NAME":"ONEWEB-0183","OBJECT_ID":"2021-031K","EPOCH":"2026-01-14T19:32:39.280992","MEAN_MOTION":13.14503293,"ECCENTRICITY":0.0001939,"INCLINATION":87.9009,"RA_OF_ASC_NODE":320.2744,"ARG_OF_PERICENTER":82.3665,"MEAN_ANOMALY":277.7685,"EPHEMERIS_TYPE":0,"CLASSIFICATION_TYPE":"U","NORAD_CAT_ID":48219,"ELEMENT_SET_NO":999,"REV_AT_EPOCH":22817,"BSTAR":0.00012641,"MEAN_MOTION_DOT":6.0e-7,"MEAN_MOTION_DDOT":0},{"OBJECT_NAME":"ONEWEB-0185","OBJECT_ID":"2021-031L","EPOCH":"2026-01-14T20:10:19.063488","MEAN_MOTION":13.1450096,"ECCENTRICITY":0.00019,"INCLINATION":87.9028,"RA_OF_ASC_NODE":320.2508,"ARG_OF_PERICENTER":91.0767,"MEAN_ANOMALY":269.058,"EPHEMERIS_TYPE":0,"CLASSIFICATION_TYPE":"U","NORAD_CAT_ID":48220,"ELEMENT_SET_NO":999,"REV_AT_EPOCH":22810,"BSTAR":0.00034833,"MEAN_MOTION_DOT":1.42e-6,"MEAN_MOTION_DDOT":0},{"OBJECT_NAME":"ONEWEB-0187","OBJECT_ID":"2021-031M","EPOCH":"2026-01-14T19:41:35.432736","MEAN_MOTION":13.14522521,"ECCENTRICITY":0.0001739,"INCLINATION":87.9015,"RA_OF_ASC_NODE":320.2921,"ARG_OF_PERICENTER":86.0936,"MEAN_ANOMALY":274.0392,"EPHEMERIS_TYPE":0,"CLASSIFICATION_TYPE":"U","NORAD_CAT_ID":48221,"ELEMENT_SET_NO":999,"REV_AT_EPOCH":22811,"BSTAR":-0.01063,"MEAN_MOTION_DOT":-3.928e-5,"MEAN_MOTION_DDOT":0},{"OBJECT_NAME":"ONEWEB-0192","OBJECT_ID":"2021-031N","EPOCH":"2026-01-14T20:48:00.521280","MEAN_MOTION":13.14503339,"ECCENTRICITY":0.0001646,"INCLINATION":87.9018,"RA_OF_ASC_NODE":320.2722,"ARG_OF_PERICENTER":78.6055,"MEAN_ANOMALY":281.526,"EPHEMERIS_TYPE":0,"CLASSIFICATION_TYPE":"U","NORAD_CAT_ID":48222,"ELEMENT_SET_NO":999,"REV_AT_EPOCH":22803,"BSTAR":-0.00071146,"MEAN_MOTION_DOT":-2.51e-6,"MEAN_MOTION_DDOT":0},{"OBJECT_NAME":"ONEWEB-0219","OBJECT_ID":"2021-031P","EPOCH":"2026-01-14T20:18:19.575360","MEAN_MOTION":13.14502801,"ECCENTRICITY":0.0001747,"INCLINATION":87.9024,"RA_OF_ASC_NODE":320.2569,"ARG_OF_PERICENTER":86.9535,"MEAN_ANOMALY":273.1795,"EPHEMERIS_TYPE":0,"CLASSIFICATION_TYPE":"U","NORAD_CAT_ID":48223,"ELEMENT_SET_NO":999,"REV_AT_EPOCH":22823,"BSTAR":0.00023174,"MEAN_MOTION_DOT":9.9e-7,"MEAN_MOTION_DDOT":0},{"OBJECT_NAME":"ONEWEB-0202","OBJECT_ID":"2021-031Q","EPOCH":"2026-01-14T19:50:54.920256","MEAN_MOTION":13.14503722,"ECCENTRICITY":0.0001003,"INCLINATION":87.9018,"RA_OF_ASC_NODE":320.2712,"ARG_OF_PERICENTER":84.8089,"MEAN_ANOMALY":275.3155,"EPHEMERIS_TYPE":0,"CLASSIFICATION_TYPE":"U","NORAD_CAT_ID":48224,"ELEMENT_SET_NO":999,"REV_AT_EPOCH":22821,"BSTAR":0.00067542,"MEAN_MOTION_DOT":2.63e-6,"MEAN_MOTION_DDOT":0},{"OBJECT_NAME":"ONEWEB-0204","OBJECT_ID":"2021-031R","EPOCH":"2026-01-14T20:39:59.700960","MEAN_MOTION":13.14502412,"ECCENTRICITY":0.0002022,"INCLINATION":87.9026,"RA_OF_ASC_NODE":320.256,"ARG_OF_PERICENTER":83.2362,"MEAN_ANOMALY":276.8998,"EPHEMERIS_TYPE":0,"CLASSIFICATION_TYPE":"U","NORAD_CAT_ID":48225,"ELEMENT_SET_NO":999,"REV_AT_EPOCH":22811,"BSTAR":-0.00096468,"MEAN_MOTION_DOT":-3.45e-6,"MEAN_MOTION_DDOT":0},{"OBJECT_NAME":"ONEWEB-0205","OBJECT_ID":"2021-031S","EPOCH":"2026-01-14T20:04:37.855200","MEAN_MOTION":13.14503018,"ECCENTRICITY":0.0001739,"INCLINATION":87.9025,"RA_OF_ASC_NODE":320.254,"ARG_OF_PERICENTER":85.2427,"MEAN_ANOMALY":274.8901,"EPHEMERIS_TYPE":0,"CLASSIFICATION_TYPE":"U","NORAD_CAT_ID":48226,"ELEMENT_SET_NO":999,"REV_AT_EPOCH":22812,"BSTAR":0.00045004,"MEAN_MOTION_DOT":1.8e-6,"MEAN_MOTION_DDOT":0},{"OBJECT_NAME":"ONEWEB-0206","OBJECT_ID":"2021-031T","EPOCH":"2026-01-14T19:25:47.788896","MEAN_MOTION":13.14502771,"ECCENTRICITY":0.0001757,"INCLINATION":87.9034,"RA_OF_ASC_NODE":320.2533,"ARG_OF_PERICENTER":70.0186,"MEAN_ANOMALY":290.1133,"EPHEMERIS_TYPE":0,"CLASSIFICATION_TYPE":"U","NORAD_CAT_ID":48227,"ELEMENT_SET_NO":999,"REV_AT_EPOCH":22807,"BSTAR":-0.0007649,"MEAN_MOTION_DOT":-2.71e-6,"MEAN_MOTION_DDOT":0},{"OBJECT_NAME":"ONEWEB-0182","OBJECT_ID":"2021-031U","EPOCH":"2026-01-14T19:18:57.147840","MEAN_MOTION":13.14503375,"ECCENTRICITY":0.0001979,"INCLINATION":87.9011,"RA_OF_ASC_NODE":320.276,"ARG_OF_PERICENTER":81.4801,"MEAN_ANOMALY":278.6553,"EPHEMERIS_TYPE":0,"CLASSIFICATION_TYPE":"U","NORAD_CAT_ID":48228,"ELEMENT_SET_NO":999,"REV_AT_EPOCH":22828,"BSTAR":-0.00045609,"MEAN_MOTION_DOT":-1.56e-6,"MEAN_MOTION_DDOT":0},{"OBJECT_NAME":"ONEWEB-0186","OBJECT_ID":"2021-031V","EPOCH":"2026-01-14T19:34:57.019008","MEAN_MOTION":13.14502409,"ECCENTRICITY":0.0001731,"INCLINATION":87.9025,"RA_OF_ASC_NODE":320.2558,"ARG_OF_PERICENTER":82.391,"MEAN_ANOMALY":277.7417,"EPHEMERIS_TYPE":0,"CLASSIFICATION_TYPE":"U","NORAD_CAT_ID":48229,"ELEMENT_SET_NO":999,"REV_AT_EPOCH":22823,"BSTAR":0.00011949,"MEAN_MOTION_DOT":5.7e-7,"MEAN_MOTION_DDOT":0},{"OBJECT_NAME":"ONEWEB-0181","OBJECT_ID":"2021-031W","EPOCH":"2026-01-14T20:52:34.952736","MEAN_MOTION":13.14502842,"ECCENTRICITY":0.0001616,"INCLINATION":87.9017,"RA_OF_ASC_NODE":320.2942,"ARG_OF_PERICENTER":83.2498,"MEAN_ANOMALY":276.8815,"EPHEMERIS_TYPE":0,"CLASSIFICATION_TYPE":"U","NORAD_CAT_ID":48230,"ELEMENT_SET_NO":999,"REV_AT_EPOCH":22809,"BSTAR":-0.00065825,"MEAN_MOTION_DOT":-2.31e-6,"MEAN_MOTION_DDOT":0},{"OBJECT_NAME":"ONEWEB-0188","OBJECT_ID":"2021-031X","EPOCH":"2026-01-14T19:57:45.957888","MEAN_MOTION":13.14503282,"ECCENTRICITY":0.0001764,"INCLINATION":87.9015,"RA_OF_ASC_NODE":320.2991,"ARG_OF_PERICENTER":79.8422,"MEAN_ANOMALY":280.2906,"EPHEMERIS_TYPE":0,"CLASSIFICATION_TYPE":"U","NORAD_CAT_ID":48231,"ELEMENT_SET_NO":999,"REV_AT_EPOCH":22799,"BSTAR":0.0005389,"MEAN_MOTION_DOT":2.13e-6,"MEAN_MOTION_DDOT":0},{"OBJECT_NAME":"ONEWEB-0220","OBJECT_ID":"2021-031Y","EPOCH":"2026-01-14T19:05:14.458272","MEAN_MOTION":13.14503374,"ECCENTRICITY":0.0001799,"INCLINATION":87.9029,"RA_OF_ASC_NODE":320.2587,"ARG_OF_PERICENTER":86.6479,"MEAN_ANOMALY":273.4857,"EPHEMERIS_TYPE":0,"CLASSIFICATION_TYPE":"U","NORAD_CAT_ID":48232,"ELEMENT_SET_NO":999,"REV_AT_EPOCH":22825,"BSTAR":-0.00052733,"MEAN_MOTION_DOT":-1.83e-6,"MEAN_MOTION_DDOT":0}]
